     2.100          NAVIGATION                              RINEX VERSION / TYPE
fic2rin                                 07/20/2009 01:47:34 PGM / RUN BY / DATE
                                                            END OF HEADER
29 09  7 19  6  0  0.0  .407840125263D-04  .341060513165D-11  .000000000000D+00
     .930000000000D+02  .109062500000D+02  .498377902297D-08  .259384387029D+01
     .311061739922D-06  .334034743719D-02  .640004873276D-05  .515363562584D+04
     .216000000000D+05  .115483999252D-06 -.241809855336D+01 -.465661287308D-07
     .959954461476D+00  .258031250000D+03 -.129773874961D+01 -.805354974839D-08
     .362157942475D-09  .100000000000D+01  .154100000000D+04  .000000000000D+00
     .340000000000D+01  .000000000000D+00 -.884756445885D-08  .930000000000D+02
     .144060000000D+05  .400000000000D+01
30 09  7 19  6  0  0.0  .162094831467D-03  .284217094304D-11  .000000000000D+00
     .330000000000D+02 -.760937500000D+02  .438482550273D-08  .104566484510D+01
    -.406056642532D-05  .116714295000D-01  .108163803816D-04  .515357508087D+04
     .216000000000D+05 -.184401869774D-06  .274925193269D+01 -.135973095894D-06
     .952952784869D+00  .167531250000D+03  .142824551785D+01 -.803604901941D-08
     .426446334630D-09  .100000000000D+01  .154100000000D+04  .000000000000D+00
     .240000000000D+01  .000000000000D+00 -.838190317154D-08  .330000000000D+02
     .144060000000D+05  .400000000000D+01
31 09  7 19  6  0  0.0 -.639627687633D-04 -.454747350886D-12  .000000000000D+00
     .580000000000D+02 -.135531250000D+03  .401766735197D-08 -.291347513567D+01
    -.692717730999D-05  .698761257809D-02  .436417758465D-05  .515375533867D+04
     .216000000000D+05  .651925802231D-07  .174353833435D+01  .745058059692D-08
     .973217472814D+00  .303156250000D+03 -.113675055589D+01 -.788247119371D-08
    -.236081262304D-09  .100000000000D+01  .154100000000D+04  .000000000000D+00
     .240000000000D+01  .000000000000D+00 -.130385160446D-07  .580000000000D+02
     .144060000000D+05  .400000000000D+01
32 09  7 19  6  0  0.0  .229642260820D-03 -.613908923697D-11  .000000000000D+00
     .390000000000D+02  .154343750000D+03  .409374194936D-08 -.197544429369D+01
     .797770917416D-05  .132228926523D-01  .862218439579D-05  .515378461838D+04
     .216000000000D+05 -.987201929092D-07 -.264346780704D+00  .316649675369D-06
     .963603622850D+00  .215750000000D+03 -.114243710279D+01 -.774960851659D-08
    -.202865593023D-09  .100000000000D+01  .154100000000D+04  .000000000000D+00
     .240000000000D+01  .000000000000D+00 -.325962901115D-08  .390000000000D+02
     .144060000000D+05  .400000000000D+01
25 09  7 19  5 59 44.0  .514891929924D-03  .171667124960D-10  .000000000000D+00
     .410000000000D+02 -.131312500000D+03  .412767193410D-08  .174478873140D+01
    -.688433647156D-05  .112851706799D-01  .272877514362D-05  .515365109062D+04
     .215840000000D+05  .299885869026D-06  .165096180324D+01 -.279396772385D-07
     .970041476201D+00  .330687500000D+03 -.120930133893D+01 -.805426406386D-08
    -.210008747707D-09  .100000000000D+01  .154100000000D+04  .000000000000D+00
     .240000000000D+01  .000000000000D+00 -.745058059692D-08  .410000000000D+02
     .144660000000D+05  .400000000000D+01
30 09  7 19  5 59 44.0  .162089709193D-03  .284217094304D-11  .000000000000D+00
     .350000000000D+02 -.760937500000D+02  .438482550273D-08  .104333095680D+01
    -.406056642532D-05  .116714201868D-01  .108163803816D-04  .515357509995D+04
     .215840000000D+05 -.184401869774D-06  .274925205558D+01 -.135973095894D-06
     .952952771702D+00  .167531250000D+03  .142824545202D+01 -.803604901941D-08
     .426446334630D-09  .100000000000D+01  .154100000000D+04  .000000000000D+00
     .240000000000D+01  .000000000000D+00 -.838190317154D-08  .350000000000D+02
     .188460000000D+05  .400000000000D+01
29 09  7 19  5 59 44.0  .407826155424D-04  .341060513165D-11  .000000000000D+00
     .000000000000D+00  .109062500000D+02  .498377902297D-08  .259150943194D+01
     .311061739922D-06  .334034767002D-02  .640004873276D-05  .515363562393D+04
     .215840000000D+05  .115483999252D-06 -.241809841585D+01 -.465661287308D-07
     .959954440996D+00  .258031250000D+03 -.129773810446D+01 -.805354974839D-08
     .362157942475D-09  .100000000000D+01  .154100000000D+04  .000000000000D+00
     .240000000000D+01  .000000000000D+00 -.884756445885D-08  .000000000000D+00
     .192360000000D+05  .400000000000D+01
20 09  7 19  5 59 44.0  .769626349211D-04 -.102318153949D-11  .000000000000D+00
     .400000000000D+01  .136937500000D+03  .472733976982D-08  .148784842697D+01
     .689178705215D-05  .385272852145D-02  .981800258160D-05  .515357716370D+04
     .215840000000D+05 -.912696123123D-07 -.374948380436D+00 -.894069671631D-07
     .941542230122D+00  .178656250000D+03  .136863000569D+01 -.804354933183D-08
    -.246081678861D-09  .100000000000D+01  .154100000000D+04  .000000000000D+00
     .240000000000D+01  .000000000000D+00 -.651925802231D-08  .400000000000D+01
     .193560000000D+05  .400000000000D+01
20 09  7 19  7 59 44.0  .769556500018D-04 -.102318153949D-11  .000000000000D+00
     .500000000000D+01  .131968750000D+03  .470948188311D-08  .253792681984D+01
     .671856105328D-05  .385298416950D-02  .937096774578D-05  .515357800484D+04
     .287840000000D+05  .745058059692D-08 -.375005930171D+00 -.931322574615D-07
     .941540761352D+00  .185218750000D+03  .136879198583D+01 -.797497504686D-08
    -.243581574722D-09  .100000000000D+01  .154100000000D+04  .000000000000D+00
     .240000000000D+01  .000000000000D+00 -.651925802231D-08  .500000000000D+01
     .216060000000D+05  .400000000000D+01
29 09  7 19  7 59 44.0  .408072955906D-04  .341060513165D-11  .000000000000D+00
     .160000000000D+02  .104062500000D+02  .482662961993D-08 -.264151380053D+01
     .489875674248D-06  .333969900385D-02  .625103712082D-05  .515363684654D+04
     .287840000000D+05 -.186264514923D-08 -.241815707301D+01  .987201929092D-07
     .959957720858D+00  .252937500000D+03 -.129769329967D+01 -.801069082028D-08
     .511092717635D-09  .100000000000D+01  .154100000000D+04  .000000000000D+00
     .240000000000D+01  .000000000000D+00 -.884756445885D-08  .160000000000D+02
     .216060000000D+05  .400000000000D+01
30 09  7 19  7 59 44.0  .162110663950D-03  .284217094304D-11  .000000000000D+00
     .360000000000D+02 -.855625000000D+02  .412481467223D-08  .209345147439D+01
    -.449828803539D-05  .116719065700D-01  .103395432234D-04  .515357768250D+04
     .287840000000D+05  .249594449997D-06  .274919533532D+01 -.186264514923D-06
     .952957774882D+00  .175187500000D+03  .142836291703D+01 -.762460330962D-08
     .445375694543D-09  .100000000000D+01  .154100000000D+04  .000000000000D+00
     .240000000000D+01  .000000000000D+00 -.838190317154D-08  .360000000000D+02
     .216060000000D+05  .400000000000D+01
 1 09  7 19  8  0  0.0 -.641555525362D-04  .318323145621D-11  .000000000000D+00
     .750000000000D+02 -.768437500000D+02  .524343269573D-08  .253048241595D+01
    -.393204391003D-05  .364048988558D-02  .105444341898D-04  .515375197983D+04
     .288000000000D+05  .875443220139D-07  .278535175210D+01 -.800937414169D-07
     .961765401915D+00  .177343750000D+03  .932109226091D+00 -.764424698500D-08
     .483234414367D-09  .100000000000D+01  .154100000000D+04  .000000000000D+00
     .240000000000D+01  .630000000000D+02 -.130385160446D-07  .750000000000D+02
     .216060000000D+05  .400000000000D+01
 2 09  7 19  8  0  0.0  .160695984960D-03  .181898940355D-11  .000000000000D+00
     .700000000000D+02 -.937500000000D+00  .540915388440D-08  .692497142428D-02
    -.242143869400D-07  .906749453861D-02  .799633562565D-05  .515367371368D+04
     .288000000000D+05  .558793544769D-07 -.141044866299D+01 -.108033418655D-06
     .940627268490D+00  .215000000000D+03  .286599651854D+01 -.833606151614D-08
    -.460019161645D-09  .100000000000D+01  .154100000000D+04  .000000000000D+00
     .240000000000D+01  .000000000000D+00 -.172294676304D-07  .700000000000D+02
     .216060000000D+05  .400000000000D+01
 3 09  7 19  8  0  0.0  .422040931880D-03  .511590769747D-11  .000000000000D+00
     .140000000000D+02  .978125000000D+01  .569273712535D-08 -.285871718447D+00
     .678002834320D-06  .120876248693D-01  .651553273201D-05  .515363080406D+04
     .288000000000D+05 -.186264514923D-08 -.255911041199D+01  .156462192535D-06
     .926467900913D+00  .238968750000D+03  .914075353627D+00 -.865928926558D-08
     .513235664040D-09  .100000000000D+01  .154100000000D+04  .000000000000D+00
     .240000000000D+01  .000000000000D+00 -.419095158577D-08  .140000000000D+02
     .216060000000D+05  .400000000000D+01
 4 09  7 19  8  0  0.0 -.181342940778D-03 -.164845914696D-10  .000000000000D+00
     .750000000000D+02  .143750000000D+01  .524986153495D-08  .287738219930D+01
     .763684511185D-07  .861533370335D-02  .849924981594D-05  .515376560593D+04
     .288000000000D+05 -.856816768646D-07 -.139213301641D+01 -.154599547386D-06
     .939835690832D+00  .206000000000D+03  .495255341510D+00 -.798176104381D-08
    -.508235455761D-09  .100000000000D+01  .154100000000D+04  .000000000000D+00
     .240000000000D+01  .000000000000D+00 -.605359673500D-08  .750000000000D+02
     .216060000000D+05  .400000000000D+01
 6 09  7 19  8  0  0.0  .196507666260D-03  .106865627458D-10  .000000000000D+00
     .280000000000D+02  .837500000000D+01  .544058376501D-08  .210419793309D+01
     .385567545891D-06  .597344420385D-02  .605732202530D-05  .515368981743D+04
     .288000000000D+05  .912696123123D-07 -.249109410007D+01 -.409781932831D-07
     .933873142491D+00  .248625000000D+03 -.130897513079D+01 -.825605818368D-08
     .410017078857D-09  .100000000000D+01  .154100000000D+04  .000000000000D+00
     .240000000000D+01  .000000000000D+00 -.465661287308D-08  .280000000000D+02
     .216060000000D+05  .400000000000D+01
